satname,norad_id,inclination_deg,eccentricity,mean_motion_rev_per_day,perigee_km,apogee_km,l1,l2
STARLINK-1284,45390,53.055,0.0001153,15.06390112,546.4433672169644,548.0403595828657,1 45390U 20019AG  25364.55304330 -.00000783  00000+0 -33711-4 0  9994,2 45390  53.0550  96.9876 0001153 103.7446 256.3671 15.06390112319585
STARLINK-1297,45395,53.0543,0.0001486,15.06392834,546.2044107238607,548.262630842637,1 45395U 20019AM  25364.52354336 -.00004751  00000+0 -30030-3 0  9996,2 45395  53.0543  97.1181 0001486  88.7586 271.3573 15.06392834318760
STARLINK-1307,45397,53.055,0.0001533,15.06385907,546.1930887347844,548.3164138457305,1 45397U 20019AP  25364.64886998 -.00004107  00000+0 -25705-3 0  9993,2 45397  53.0550  96.5547 0001533  82.2858 277.8305 15.06385907319424
STARLINK-1255,45399,53.0475,0.0002425,15.40510201,442.9479740733286,446.25700272520226,1 45399U 20019AR  25364.56892603  .00087865  00000+0  21181-2 0  9999,2 45399  53.0475  72.3152 0002425  41.5238 318.5949 15.40510201319744
STARLINK-1260,45404,53.0549,0.0001624,15.06419686,546.0265570330803,548.275890648184,1 45404U 20019AW  25364.51708049 -.00000160  00000+0  81503-5 0  9992,2 45404  53.0549  87.1466 0001624  78.0084 282.1087 15.06419686319431
STARLINK-1263,45405,53.0511,0.0001461,15.06401969,546.193730700792,548.2173157860834,1 45405U 20019AX  25364.50235552  .00007531  00000+0  52389-3 0  9992,2 45405  53.0511  87.2136 0001461  98.0514 262.0641 15.06401969319433
STARLINK-1265,45406,53.057,0.000116,15.06399811,546.4087966962015,548.0154776960317,1 45406U 20019AY  25364.50972775  .00002580  00000+0  19205-3 0  9997,2 45406  53.0570  87.1812 0001160  71.3213 288.7902 15.06399811319432
STARLINK-1278,45408,53.0497,0.0003882,15.42777206,435.2711606045086,440.5631450487617,1 45408U 20019BA  25364.91670139  .00060406  00000+0  13580-2 0  9993,2 45408  53.0497  99.8605 0003882 231.3357  38.8041 15.42777206  5935
STARLINK-1296,45412,53.0552,0.0001009,15.06424999,546.436180724545,547.8337006021711,1 45412U 20019BE  25364.64608551  .00007042  00000+0  49085-3 0  9994,2 45412  53.0552  86.5657 0001009  97.1932 262.9172 15.06424999319456
STARLINK-1298,45413,53.0448,0.0004683,15.66126318,366.8412735577431,373.1615800082691,1 45413U 20019BF  25364.91670139  .00204565  00000+0  19109-2 0  9998,2 45413  53.0448  39.0352 0004683  74.5398 282.8760 15.66126318  5986
STARLINK-1309,45414,53.0553,0.0001356,15.06412024,546.2356340877923,548.1137786225545,1 45414U 20019BG  25364.52814721  .00001705  00000+0  13329-3 0  9993,2 45414  53.0553  87.0986 0001356 100.9719 259.1422 15.06412024319420
STARLINK-1316,45415,53.0553,0.0001197,15.06417313,546.3295387240569,547.9874544659406,1 45415U 20019BH  25364.62028894  .00000449  00000+0  49004-4 0  9997,2 45415  53.0553  86.6833 0001197  80.1740 279.9384 15.06417313319471
STARLINK-1318,45416,53.0455,0.0003909,15.73343731,346.7186473060474,351.97819540846376,1 45416U 20019BJ  25364.91670139  .00151155  00000+0  10552-2 0  9990,2 45416  53.0455  27.4436 0003909  41.3284 139.9606 15.73343731  5908
STARLINK-1286,45417,53.0512,0.0001806,15.43703116,433.96088954709194,436.42186375673737,1 45417U 20019BK  25364.70396742  .00038763  00000+0  85049-3 0  9996,2 45417  53.0512 100.5977 0001806 257.0770 103.0034 15.43703116319545
STARLINK-1308,45419,53.0565,0.0001264,15.06388315,546.3720024273316,548.1227395963242,1 45419U 20019BM  25364.72075427 -.00001671  00000+0 -93364-4 0  9994,2 45419  53.0565 116.2305 0001264  92.8541 267.2592 15.06388315319072
STARLINK-1329,45531,53.0561,0.0002129,15.42999749,435.8107636975428,438.71276049044263,1 45531U 20025A   25364.54916462  .00098412  00000+0  21796-2 0  9994,2 45531  53.0561  52.7083 0002129  38.4283 321.6873 15.42999749314734
STARLINK-1338,45532,53.0553,0.0001349,15.36194428,456.4529037719785,458.297124913448,1 45532U 20025B   25364.91670139  .01450702  00000+0  36645-1 0  9997,2 45532  53.0553  53.6134 0001349  71.3292 196.1504 15.36194428  5784
STARLINK-1350,45535,53.0749,0.0001842,15.34112696,462.29706141612405,464.81754159679895,1 45535U 20025E   25364.25950137  .00019575  00000+0  59428-3 0  9990,2 45535  53.0749 358.7284 0001842  86.6336 273.4876 15.34112696315493
STARLINK-1362,45538,53.0526,0.0001217,15.06407288,546.3464091568567,548.032033559135,1 45538U 20025H   25364.53363014  .00014078  00000+0  96190-3 0  9996,2 45538  53.0526  56.7907 0001217  86.1726 273.9402 15.06407288314672
STARLINK-1368,45540,53.0541,0.0002174,15.06422923,545.6357476325857,548.6468586387891,1 45540U 20025K   25364.53827845  .00000753  00000+0  69434-4 0  9993,2 45540  53.0541  57.0519 0002174 103.2238 256.8994 15.06422923314665
STARLINK-1371,45542,53.0547,0.0001189,15.2079372,502.62696635803877,504.26340660198275,1 45542U 20025M   25364.91670139  .01056764  00000+0  43887-1 0  9994,2 45542  53.0547  54.9615 0001189  81.9629 172.0561 15.20793720  5834
STARLINK-1372,45543,53.0555,0.0001638,15.06421459,546.0114286536736,548.2801512956694,1 45543U 20025N   25364.54565890  .00012405  00000+0  84972-3 0  9996,2 45543  53.0555  57.0190 0001638  97.7940 262.3235 15.06421459313762
STARLINK-1373,45544,53.0548,0.0001245,15.16325027,516.1003816022503,517.8172604616875,1 45544U 20025P   25364.91670139  .01924539  00000+0  88647-1 0  9993,2 45544  53.0548  55.1638 0001245  93.4339 116.4787 15.16325027  5832
STARLINK-1294,45551,53.044,0.000283,15.72193735,350.7238035081009,354.53341684346015,1 45551U 20025W   25364.91670139  .00158840  00000+0  11633-2 0  9996,2 45551  53.0440 322.9114 0002830 126.3134  57.8041 15.72193735  5950
STARLINK-1325,45554,53.0472,0.0010013,15.85243094,308.93785133607525,322.3428098182885,1 45554U 20025Z   25364.91670139  .00313096  00000+0  12447-2 0  9999,2 45554  53.0472 312.5957 0010013  93.1755  85.2258 15.85243094  6033
STARLINK-1327,45555,53.0546,0.0001172,15.2496653,490.0808900797665,491.6909890568013,1 45555U 20025AA  25364.91670139  .01102457  00000+0  40359-1 0  9990,2 45555  53.0546  34.7189 0001172  80.9486 148.8556 15.24966530  5831
STARLINK-1356,45564,53.0568,0.0001442,15.06400022,546.2128552591139,548.2101257637778,1 45564U 20025AK  25364.54013972  .00001210  00000+0  10012-3 0  9994,2 45564  53.0568  37.0420 0001442  91.4160 268.6994 15.06400022314946
STARLINK-1357,45565,53.0588,0.000164,15.42464297,437.720954596567,439.9569227044449,1 45565U 20025AL  25364.91670139  .00164059  00000+0  36617-2 0  9999,2 45565  53.0588   7.3047 0001640  35.9007 302.6490 15.42464297  5926
STARLINK-1361,45567,53.0593,0.0001322,15.06392009,546.3205149935102,548.1515836277476,1 45567U 20025AN  25364.35952789  .00001432  00000+0  11505-3 0  9998,2 45567  53.0593  37.8545 0001322  89.6588 270.4553 15.06392009314928
STARLINK-1363,45568,53.0517,0.0008285,15.52957146,402.47506731484737,413.71985781932017,1 45568U 20025AP  25364.30732365  .00054047  00000+0  85358-3 0  9997,2 45568  53.0517  18.5480 0008285 345.5317  14.5454 15.52957146315184
STARLINK-1366,45569,53.0496,0.000875,15.50414024,409.5718976685248,421.460791021128,1 45569U 20025AQ  25364.91670139  .00171752  00000+0  29094-2 0  9992,2 45569  53.0496  16.0987 0008750   2.9135 220.0555 15.50414024  5942
STARLINK-1376,45570,53.0551,0.000132,15.06404214,546.28449836048,548.112786970144,1 45570U 20025AR  25364.48852730  .00000130  00000+0  27612-4 0  9992,2 45570  53.0551  37.2760 0001320  84.3623 275.7517 15.06404214314930
STARLINK-1320,45572,53.0544,0.0005981,15.53433181,402.6529889721096,410.76902415756285,1 45572U 20025AT  25364.91670139  .00164928  00000+0  25117-2 0  9995,2 45572  53.0544 321.2477 0005981 108.3406 231.3692 15.53433181  5901
STARLINK-1321,45573,53.0557,0.000127,15.25840265,487.3914047248454,489.135470435991,1 45573U 20025AU  25364.91670139  .01735357  00000+0  61216-1 0  9996,2 45573  53.0557  24.5786 0001270  63.9797 214.3988 15.25840265  5833
STARLINK-1328,45576,53.0431,0.0001712,15.99845941,273.70678081110964,275.9847621120589,1 45576U 20025AX  25364.91670139  .00578505  15853-3  11179-2 0  9998,2 45576  53.0431 328.9899 0001712 129.6446 146.8094 15.99845941  5918
STARLINK-1331,45578,53.0563,0.0001462,15.06393954,546.2175994511872,548.2425767877539,1 45578U 20025AZ  25364.85067995 -.00000370  00000+0 -59449-5 0  9994,2 45578  53.0563  25.6517 0001462  85.0685 275.0470 15.06393954315148
STARLINK-1333,45580,53.0559,0.0001339,15.0640835,546.2586657638931,548.1132672543245,1 45580U 20025BB  25364.39269731 -.00000170  00000+0  74748-5 0  9994,2 45580  53.0559  37.7015 0001339  90.1206 269.9937 15.06408350314924
STARLINK-1335,45581,53.0553,0.0001927,15.0636411,545.9870219390414,548.6560936672186,1 45581U 20025BC  25364.46365873  .00009364  00000+0  64730-3 0  9998,2 45581  53.0553  27.3875 0001927 114.9841 245.1348 15.06364110315075
STARLINK-1337,45582,53.0564,0.0001348,15.0639269,546.30042212035,548.1675021317396,1 45582U 20025BD  25364.35307807 -.00001398  00000+0 -74960-4 0  9998,2 45582  53.0564  27.8824 0001348 102.0339 258.0802 15.06392690315054
STARLINK-1347,45586,53.0516,0.0002169,15.41168934,441.17878311849563,444.13764408215593,1 45586U 20025BH  25364.91670139  .00152483  00000+0  35594-2 0  9993,2 45586  53.0516 358.1939 0002169  53.3077  68.1761 15.41168934  5872
STARLINK-1360,45588,53.0293,0.0005084,16.21239578,212.83588558743668,219.54099569547998,1 45588U 20025BK  25364.95102367  .09352637  11784-4  42611-2 0  9998,2 45588  53.0293 254.6421 0005084 199.2070 160.8777 16.21239578316979
STARLINK-1364,45589,53.0557,0.0001489,15.06394471,546.1973166553034,548.2596905022683,1 45589U 20025BL  25364.48945957  .00000297  00000+0  38854-4 0  9990,2 45589  53.0557  27.2717 0001489 102.0079 258.1077 15.06394471315071
STARLINK-1365,45590,53.0558,9.88e-05,15.06391242,546.554172987414,547.9226271664693,1 45590U 20025BM  25364.57146669 -.00000112  00000+0  11376-4 0  9992,2 45590  53.0558  56.8997 0000988  80.5037 279.6064 15.06391242314682
